SHIYAN-1 (SY-1)         
1 28220U 04012A   26068.73650539  .00016393  00000+0  54854-3 0  9991
2 28220  97.8764 140.5238 0005873  23.6952 336.4557 15.31043463195862
STARLINK-31033          
1 58723U 24002U   26068.74280656  .00026561  00000+0  90443-3 0  9995
2 58723  53.1598 229.6736 0001168 104.4991 255.6140 15.30246201122021
